     2.100          NAVIGATION                              RINEX VERSION / TYPE
fic2rin                                 07/22/2013 00:14:04 PGM / RUN BY / DATE
                                                            END OF HEADER
 7 13  7 21 20  0  0.0  .238614156842D-03  .420641299570D-11  .000000000000D+00
     .850000000000D+02  .137093750000D+03  .425446292974D-08 -.100943932446D+00
     .725127756596D-05  .666959478986D-02  .541470944881D-05  .515367850685D+04
     .720000000000D+05  .521540641785D-07  .695071228712D+00  .484287738800D-07
     .975324071922D+00  .281343750000D+03 -.292137285399D+01 -.819641284207D-08
     .449661587353D-09  .100000000000D+01  .175000000000D+04  .000000000000D+00
     .240000000000D+01  .000000000000D+00 -.107102096081D-07  .850000000000D+02
     .648060000000D+05  .400000000000D+01
 9 13  7 21 20  0  0.0  .256048981100D-03  .261479726760D-11  .000000000000D+00
     .630000000000D+02  .129750000000D+03  .404445418204D-08  .932310492897D+00
     .656023621559D-05  .173873553285D-01  .576488673687D-05  .515277453804D+04
     .720000000000D+05 -.264495611191D-06  .672238029664D+00 -.180676579475D-06
     .983955490473D+00  .280687500000D+03  .169266143021D+01 -.827248743945D-08
     .403231081907D-09  .100000000000D+01  .175000000000D+04  .000000000000D+00
     .240000000000D+01  .000000000000D+00 -.558793544769D-08  .630000000000D+02
     .648060000000D+05  .400000000000D+01
10 13  7 21 20  0  0.0 -.877543352544D-04 -.136424205266D-11  .000000000000D+00
     .500000000000D+02 -.346562500000D+02  .527521973408D-08 -.253913230384D+01
    -.178068876266D-05  .125349975424D-01  .528991222382D-05  .515363897705D+04
     .720000000000D+05  .106170773506D-06 -.140316584863D+01 -.147148966789D-06
     .942785265762D+00  .267562500000D+03  .806271257028D+00 -.827070165078D-08
    -.327156484524D-09  .100000000000D+01  .175000000000D+04  .000000000000D+00
     .485000000000D+01  .000000000000D+00 -.232830643654D-08  .500000000000D+02
     .648060000000D+05  .400000000000D+01
11 13  7 21 20  0  0.0 -.402924139053D-03 -.352429196937D-11  .000000000000D+00
     .490000000000D+02  .725000000000D+01  .634276420159D-08  .108948682241D+00
     .629574060440D-06  .142223993316D-01  .104922801256D-04  .515368624306D+04
     .720000000000D+05 -.819563865662D-07 -.276629927026D+01  .987201929092D-07
     .889433338297D+00  .139468750000D+03  .118580061036D+01 -.902287583900D-08
     .533593654889D-09  .100000000000D+01  .175000000000D+04  .000000000000D+00
     .240000000000D+01  .000000000000D+00 -.116415321827D-07  .490000000000D+02
     .648060000000D+05  .400000000000D+01
12 13  7 21 20  0  0.0  .146070495248D-03  .216004991671D-11  .000000000000D+00
     .380000000000D+02 -.800625000000D+02  .448732977244D-08 -.404513687104D+00
    -.403076410294D-05  .447941327002D-02  .157579779625D-05  .515352667999D+04
     .720000000000D+05  .223517417908D-07  .175490347135D+01 -.130385160446D-07
     .984406895790D+00  .362687500000D+03  .323905290264D+00 -.837320592049D-08
    -.152506352502D-09  .100000000000D+01  .175000000000D+04  .000000000000D+00
     .240000000000D+01  .000000000000D+00 -.116415321827D-07  .380000000000D+02
     .648060000000D+05  .400000000000D+01
13 13  7 21 20  0  0.0  .977399758995D-04 -.363797880709D-11  .000000000000D+00
     .630000000000D+02  .608750000000D+02  .356621997595D-08  .222795476367D+01
     .330992043018D-05  .510922982357D-02  .129975378513D-04  .515373069572D+04
     .720000000000D+05 -.465661287308D-07 -.271175322421D+00  .122934579849D-06
     .981272645007D+00  .138031250000D+03  .217454291069D+01 -.734387733054D-08
    -.367158150754D-09  .100000000000D+01  .175000000000D+04  .000000000000D+00
     .340000000000D+01  .000000000000D+00 -.107102096081D-07  .630000000000D+02
     .648060000000D+05  .400000000000D+01
14 13  7 21 20  0  0.0  .219067558646D-03 -.454747350886D-12  .000000000000D+00
     .380000000000D+02  .739375000000D+02  .363443710318D-08  .245736145620D+01
     .383891165257D-05  .717394903768D-02  .136308372021D-04  .515377992630D+04
     .720000000000D+05  .707805156708D-07 -.300793316083D+00 -.128522515297D-06
     .973910961815D+00  .120625000000D+03 -.203239285060D+01 -.741066582683D-08
    -.355014787791D-09  .100000000000D+01  .175000000000D+04  .000000000000D+00
     .240000000000D+01  .000000000000D+00 -.884756445885D-08  .380000000000D+02
     .648060000000D+05  .400000000000D+01
15 13  7 21 20  0  0.0 -.128637067974D-03 -.170530256582D-11  .000000000000D+00
     .610000000000D+02  .452500000000D+02  .462626413104D-08  .193753007550D+01
     .238604843616D-05  .547779386397D-02  .122133642435D-04  .515379909515D+04
     .720000000000D+05 -.186264514923D-07 -.402433761381D+00  .484287738800D-07
     .940448413588D+00  .134562500000D+03  .159925625110D+00 -.794497379719D-08
    -.507878298027D-09  .100000000000D+01  .175000000000D+04  .000000000000D+00
     .240000000000D+01  .000000000000D+00 -.977888703346D-08  .610000000000D+02
     .648060000000D+05  .400000000000D+01
16 13  7 21 20  0  0.0 -.249873846769D-03  .568434188608D-12  .000000000000D+00
     .106000000000D+03 -.934062500000D+02  .442268422255D-08 -.261920240096D+01
    -.482425093651D-05  .709129229654D-02  .104308128357D-05  .515367764854D+04
     .720000000000D+05 -.135973095894D-06  .177332914692D+01 -.502914190292D-07
     .985094031338D+00  .376125000000D+03  .132575954686D+00 -.831320342115D-08
    -.209294432239D-09  .100000000000D+01  .175000000000D+04  .000000000000D+00
     .340000000000D+01  .000000000000D+00 -.977888703346D-08  .106000000000D+03
     .648060000000D+05  .400000000000D+01
17 13  7 21 20  0  0.0 -.327546149492D-05 -.386535248253D-11  .000000000000D+00
     .500000000000D+02 -.114750000000D+03  .406516933062D-08  .268912666965D+01
    -.598095357418D-05  .840453209821D-02  .114087015390D-04  .515366914749D+04
     .720000000000D+05  .000000000000D+00  .280950748029D+01 -.135973095894D-06
     .966331167778D+00  .160781250000D+03 -.219185252606D+01 -.761603152400D-08
    -.321441960776D-11  .100000000000D+01  .175000000000D+04  .000000000000D+00
     .240000000000D+01  .000000000000D+00 -.102445483208D-07  .500000000000D+02
     .648060000000D+05  .400000000000D+01
18 13  7 21 20  0  0.0  .264791306108D-03  .193267624127D-11  .000000000000D+00
     .620000000000D+02 -.277812500000D+02  .562059126304D-08 -.209623231050D+01
    -.143982470036D-05  .145582996774D-01  .505708158016D-05  .515360642624D+04
     .720000000000D+05  .188127160072D-06 -.142088330069D+01 -.100582838058D-06
     .926556689800D+00  .262812500000D+03 -.209057188108D+01 -.834391898629D-08
    -.345014371233D-09  .100000000000D+01  .175000000000D+04  .000000000000D+00
     .240000000000D+01  .000000000000D+00 -.107102096081D-07  .620000000000D+02
     .648060000000D+05  .400000000000D+01
19 13  7 21 20  0  0.0 -.390556640923D-03 -.295585778076D-11  .000000000000D+00
     .500000000000D+02 -.130437500000D+03  .418874590665D-08  .191723373001D+01
    -.649318099022D-05  .945834245067D-02  .128392130136D-04  .515373712349D+04
     .720000000000D+05 -.182539224625D-06  .286126707848D+01  .191852450371D-06
     .963564633157D+00  .136031250000D+03  .344220751707D+00 -.782175437889D-08
     .639312344211D-10  .100000000000D+01  .175000000000D+04  .000000000000D+00
     .240000000000D+01  .000000000000D+00 -.144354999065D-07  .500000000000D+02
     .648060000000D+05  .400000000000D+01
20 13  7 21 20  0  0.0  .110764056444D-03  .227373675443D-11  .000000000000D+00
     .300000000000D+02 -.210312500000D+02  .579559855280D-08 -.159836419145D+01
    -.114366412163D-05  .539357960224D-02  .463984906673D-05  .515369491005D+04
     .720000000000D+05  .137835741043D-06 -.147429483329D+01  .108033418655D-06
     .927335360131D+00  .272781250000D+03  .128986253472D+01 -.864393148301D-08
    -.406088343781D-09  .100000000000D+01  .175000000000D+04  .000000000000D+00
     .240000000000D+01  .000000000000D+00 -.791624188423D-08  .300000000000D+02
     .648060000000D+05  .400000000000D+01
21 13  7 21 20  0  0.0 -.309540890157D-03 -.193267624127D-11  .000000000000D+00
     .100000000000D+02  .377812500000D+02  .543451208353D-08 -.106262393359D+01
     .214390456676D-05  .204662552569D-01  .836700201035D-05  .515365280533D+04
     .720000000000D+05  .249594449997D-06 -.246851766509D+01  .508502125740D-06
     .931720480481D+00  .201750000000D+03 -.211828851719D+01 -.852178353792D-08
     .545737017852D-09  .100000000000D+01  .175000000000D+04  .000000000000D+00
     .240000000000D+01  .000000000000D+00 -.111758708954D-07  .100000000000D+02
     .648060000000D+05  .400000000000D+01
22 13  7 21 20  0  0.0  .176639761776D-03  .170530256582D-11  .000000000000D+00
     .500000000000D+01 -.268125000000D+02  .572345269049D-08 -.268009348406D+01
    -.140070915222D-05  .679080816917D-02  .518932938576D-05  .515363541222D+04
     .720000000000D+05  .484287738800D-07 -.141838491457D+01 -.279396772385D-07
     .924307902369D+00  .259781250000D+03 -.203489144592D+01 -.848571060676D-08
    -.403945397376D-09  .100000000000D+01  .175000000000D+04  .000000000000D+00
     .240000000000D+01  .000000000000D+00 -.172294676304D-07  .500000000000D+01
     .648060000000D+05  .400000000000D+01
23 13  7 21 20  0  0.0  .648256391287D-04 -.352429196937D-11  .000000000000D+00
     .390000000000D+02  .443437500000D+02  .417124517768D-08  .144955448061D+01
     .252388417721D-05  .879933708347D-02  .135451555252D-04  .515369127083D+04
     .720000000000D+05 -.182539224625D-06 -.360468345605D+00  .614672899246D-07
     .955442026293D+00  .116062500000D+03 -.285503926798D+01 -.775210862073D-08
    -.596810573842D-09  .100000000000D+01  .175000000000D+04  .000000000000D+00
     .240000000000D+01  .000000000000D+00 -.200234353542D-07  .390000000000D+02
     .648060000000D+05  .400000000000D+01
